TEVEL2-1                
1 63217U 25052H   26068.64782323  .00020683  00000+0  70600-3 0  9994
2 63217  97.3991 324.7682 0004767 104.8919 255.2849 15.30341923 54855
STARLINK-34850          
1 65460U 25195C   26068.71399470  .00027705  00000+0  94311-3 0  9996
2 65460  53.1596 258.3347 0001048  68.1690 291.9422 15.30232482 29995
